Search.setIndex({docnames:["api/cysgp4.PyCoordGeodetic","api/cysgp4.PyCoordTopocentric","api/cysgp4.PyDateTime","api/cysgp4.PyEci","api/cysgp4.PyObserver","api/cysgp4.PyTle","api/cysgp4.Satellite","api/cysgp4.eci_to_geo","api/cysgp4.geo_to_eci","api/cysgp4.get_example_tles","api/cysgp4.lookangles","api/cysgp4.propagate_many","api/cysgp4.propagate_many_slow","api/cysgp4.satellite_mean_motion","api/cysgp4.set_num_threads","api/cysgp4.test","api/cysgp4.tle_checksum","api/cysgp4.tle_linestrings_from_orbital_parameters","api/cysgp4.tle_tuples_from_text","api/cysgp4.tles_from_text","importing_cysgp4","index","install","license","quick_tour","user_manual"],envversion:{"sphinx.domains.c":2,"sphinx.domains.changeset":1,"sphinx.domains.citation":1,"sphinx.domains.cpp":3,"sphinx.domains.index":1,"sphinx.domains.javascript":2,"sphinx.domains.math":2,"sphinx.domains.python":2,"sphinx.domains.rst":2,"sphinx.domains.std":1,"sphinx.ext.intersphinx":1,"sphinx.ext.todo":2,"sphinx.ext.viewcode":1,sphinx:56},filenames:["api/cysgp4.PyCoordGeodetic.rst","api/cysgp4.PyCoordTopocentric.rst","api/cysgp4.PyDateTime.rst","api/cysgp4.PyEci.rst","api/cysgp4.PyObserver.rst","api/cysgp4.PyTle.rst","api/cysgp4.Satellite.rst","api/cysgp4.eci_to_geo.rst","api/cysgp4.geo_to_eci.rst","api/cysgp4.get_example_tles.rst","api/cysgp4.lookangles.rst","api/cysgp4.propagate_many.rst","api/cysgp4.propagate_many_slow.rst","api/cysgp4.satellite_mean_motion.rst","api/cysgp4.set_num_threads.rst","api/cysgp4.test.rst","api/cysgp4.tle_checksum.rst","api/cysgp4.tle_linestrings_from_orbital_parameters.rst","api/cysgp4.tle_tuples_from_text.rst","api/cysgp4.tles_from_text.rst","importing_cysgp4.rst","index.rst","install.rst","license.rst","quick_tour.rst","user_manual.rst"],objects:{"cysgp4.PyCoordGeodetic":{alt:[0,1,1,""],ecef:[0,1,1,""],lat:[0,1,1,""],lon:[0,1,1,""]},"cysgp4.PyCoordTopocentric":{az:[1,1,1,""],dist:[1,1,1,""],dist_rate:[1,1,1,""],el:[1,1,1,""]},"cysgp4.PyDateTime":{datetime:[2,1,1,""],from_mjd:[2,2,1,""],from_ticks:[2,2,1,""],from_tle_epoch:[2,2,1,""],get_datetime_tuple:[2,2,1,""],gmst:[2,2,1,""],lmst:[2,2,1,""],mjd:[2,1,1,""],set:[2,2,1,""],ticks:[2,1,1,""],tle_epoch:[2,1,1,""]},"cysgp4.PyEci":{geo_loc:[3,1,1,""],loc:[3,1,1,""],pydt:[3,1,1,""],update:[3,2,1,""],vel:[3,1,1,""]},"cysgp4.PyObserver":{loc:[4,1,1,""]},"cysgp4.PyTle":{arg_perigee:[5,1,1,""],bstar:[5,1,1,""],catalog_number:[5,1,1,""],eccentricity:[5,1,1,""],epoch:[5,1,1,""],inclination:[5,1,1,""],int_designator:[5,1,1,""],mean_anomaly:[5,1,1,""],mean_motion:[5,1,1,""],mean_motion_dt2:[5,1,1,""],mean_motion_dt6:[5,1,1,""],raan:[5,1,1,""],rev_number:[5,1,1,""],tle_strings:[5,2,1,""]},"cysgp4.Satellite":{eci_pos:[6,2,1,""],geo_pos:[6,2,1,""],mjd:[6,1,1,""],pydt:[6,1,1,""],topo_pos:[6,2,1,""]},cysgp4:{PyCoordGeodetic:[0,0,1,""],PyCoordTopocentric:[1,0,1,""],PyDateTime:[2,0,1,""],PyEci:[3,0,1,""],PyObserver:[4,0,1,""],PyTle:[5,0,1,""],Satellite:[6,0,1,""],eci_to_geo:[7,3,1,""],geo_to_eci:[8,3,1,""],get_example_tles:[9,3,1,""],lookangles:[10,3,1,""],propagate_many:[11,3,1,""],propagate_many_slow:[12,3,1,""],satellite_mean_motion:[13,3,1,""],set_num_threads:[14,3,1,""],test:[15,3,1,""],tle_checksum:[16,3,1,""],tle_linestrings_from_orbital_parameters:[17,3,1,""],tle_tuples_from_text:[18,3,1,""],tles_from_text:[19,3,1,""]}},objnames:{"0":["py","class","Python class"],"1":["py","attribute","Python attribute"],"2":["py","method","Python method"],"3":["py","function","Python function"]},objtypes:{"0":"py:class","1":"py:attribute","2":"py:method","3":"py:function"},terms:{"0000":17,"00000":[5,6,9,16,17,18,24,25],"000000":[2,3,17,25],"00000000":[5,17,25],"00000471":[5,6,9,18,24,25],"00001":17,"00001006":[9,18,25],"00001770":[5,25],"00001u":17,"00004759":16,"0000km":[1,25],"0001":[2,17,25],"0001000":17,"00016037":25,"00016421":[9,18,25],"0002495":[5,6,9,18,24,25],"00024950":[5,25],"0005":[6,25],"00051":[6,25],"001":6,"0016973":[9,18,25],"00717592592":[2,25],"00957719":[9,18,25],"01292738":25,"01358":[2,25],"0173km":[24,25],"0186km":6,"0289":25,"0300km":[1,25],"0304":[9,18,25],"05289193431368386":25,"060000":[5,25],"074":25,"076129":[2,25],"07700297":25,"08696759":17,"09299865":[5,25],"09299865423838":[5,6,9,18,24,25],"1000":[1,11,24,25],"1000d":[1,25],"112":[6,17,24,25],"119":25,"1200":[1,25],"123":[2,25],"127":[9,18,25],"130":[1,25],"13165":16,"135":13,"1359":25,"13956":[9,18,25],"15108":25,"1545":[6,24,25],"171":[5,6,9,18,24,25],"1764871":25,"1766579":[9,18,25],"17700":[5,6,9,18,24,25],"180":[2,17,25],"18015c":[9,18,25],"1858":[2,25],"19050":2,"19306":17,"19321":[5,6,9,18,24,25],"19322":[9,18,25],"19331":25,"1957":2,"19822":[9,18,25],"19822u":[9,18,25],"199999":[2,25],"1st":25,"200":[9,25],"20001a":17,"2010":[2,3,25],"2013":[2,25],"2015":22,"20180":[2,17,25],"2019":[2,5,9,17,25],"2020":[2,17,25],"2056":2,"2058":[9,25],"20580":[5,6,9,18,24,25],"20580u":[5,6,9,18,24,25],"20697960810978586":[6,24,25],"20935646":[9,18,25],"2146d":[6,24,25],"219378350934464":13,"236":25,"2453d":[6,24,25],"25544u":16,"261":25,"274852915850126":[6,25],"274885794151324":[6,25],"2749d":[6,24,25],"276":[9,18,25],"28103":25,"28704":[9,18,25],"288":[5,6,9,18,24,25],"2915332651982093":25,"2nd":25,"3000":17,"316":25,"321":[5,6,9,18,24,25],"327":[9,18,25],"3287":[6,24,25],"3304166274728":[3,25],"366":[0,3,4,6,11,24,25],"3660km":[0,3,4,25],"374044252723081":[6,24,25],"3806":25,"38711875":[5,6,9,18,24,25],"3937":[9,18,25],"398600":13,"3997":[3,25],"3rd":25,"402205553537":[3,25],"4058":[9,18,25],"4087":[9,18,25],"4125":25,"4135":[9,18,25],"4155452595":[6,24,25],"42383":[5,25],"43194":[9,18,25],"43194u":[9,18,25],"4338":25,"457":25,"4699":[5,6,9,18,24,25],"46990000":[5,25],"48427":[9,18,25],"4885km":[6,24,25],"4900":[3,25],"49921565":[9,18,25],"500":13,"50000":17,"5087km":[6,24,25],"523":25,"525":[0,3,4,6,11,24,25],"5250d":[0,3,4,25],"5300d":[1,25],"538":[6,24,25],"55091545":[9,18,25],"5509d":[6,24,25],"55317":[2,25],"55489":[2,25],"55555":[3,25],"55556":[3,25],"55934723":17,"56458":[2,25],"5681km":[24,25],"5683km":6,"5855":[5,6,9,18,24,25],"58550000":[5,25],"58628880000000000":[2,25],"5879":[6,24,25],"58805":[6,11,24,25],"58806":[11,24,25],"59097222":16,"5931344459295":[6,24,25],"63423130773311999":[2,25],"63681941594000000":[2,25],"6378":13,"652":25,"6611":25,"6844d":6,"6845d":[24,25],"6925":[9,18,25],"720":[6,24,25],"725":[3,25],"7455647032068":[6,24,25],"7460":[9,18,25],"758":25,"762":25,"7771":[5,6,9,18,24,25],"77710000":[5,25],"8102":[5,6,9,18,24,25],"81020000":[5,25],"8205895517672226":[6,24,25],"8314":[6,24,25],"844568313870965":[6,25],"84463503781068":[6,25],"8446d":[6,24,25],"86400":[6,25],"8734":[6,24,25],"88375":[0,3,4,6,11,24,25],"8837d":[3,25],"8838d":[0,4,25],"88814":16,"89016a":[9,18,25],"90037b":[5,6,9,18,24,25],"9195km":6,"9196km":[24,25],"924210010933":[3,25],"9361":25,"93960":25,"94291":[9,18,25],"959715":[2,25],"9734":[9,18,25],"98067a":16,"982":25,"99453":[9,18,25],"9991":[5,6,9,18,24,25],"9992":[9,18,25],"9993":[9,18,25],"boolean":[2,11],"case":[5,11,17,22,24,25],"class":[0,1,2,3,4,5,6,11,20],"default":[0,1,2,4,6,11,13,15],"export":22,"float":[0,1,2,4,11,13,17],"function":[11,17,20,21,22,24],"import":[0,1,2,3,4,5,6,9,11,13,16,17,18,19,21,22,24,25],"int":[2,5,14,15,16,17,25],"new":[2,3,6,22,25],"return":[0,1,2,3,4,5,6,9,11,13,16,17,18,19,24,25],"throw":[6,11],"true":[2,11,12,15,16,24,25],"try":[22,25],And:25,For:[2,6,11,24,25],One:[2,3,24,25],The:[0,1,3,4,6,9,11,15,17,21,22,23,24,25],Then:[20,22],There:[2,22,25],Use:[9,22],Used:22,Using:[20,24],With:[11,25],abl:25,about:22,abov:[13,22,25],absolut:15,accept:15,access:[0,1,2,3,4,20,22,25],across:11,actual:22,add:[15,25],added:25,addit:[11,15],administr:22,affili:23,again:[22,25],aka:[1,2,11,25],akebono:[9,18,19,25],align:11,all:[11,15,25],all_lin:[5,25],allow:[11,24,25],along:[11,25],alreadi:22,also:[0,1,2,3,4,6,11,14,22,24],alt:[0,8,11,24,25],alt_km:[0,3,4,6,13,17,24,25],altern:11,although:[5,25],altitud:[0,3,4,13,17,25],alwai:[1,4,6,11,22,25],amount:[6,25],analysi:15,angl:11,ani:[15,22],anomali:[5,17,25],anoth:[6,24,25],apach:23,appar:[6,25],appli:[11,24,25],applic:25,approach:[22,24],approxim:11,arg:15,arg_perige:5,argument:[5,15,17,25],argument_of_perige:17,argument_of_perigee_deg:17,around:[0,1,2,3,4,5,25],arrai:[11,21,24,25],ascend:[5,17,25],ascens:[5,17],assum:[16,17],astronomi:2,astropi:[15,21,22,23],atmospher:25,attach:[4,25],attribut:[0,1,2,3,4,5,6],auto:15,avail:[22,25],avoid:22,awar:22,axes:[11,25],axi:[11,25],az_deg:[1,25],azimuth:[1,2,11,25],ball:22,base:[0,1,2,3,4,5,6,23,25],basic:[22,25],batch:[6,11],becaus:[4,15,22,25],begin:[2,17,25],below:[22,25],benchmark:12,best:25,better:22,between:[1,2,25],bin:22,binari:22,bit:22,bodi:25,boiler:11,bool:15,boost:[21,25],box:22,brandon:[21,25],brew:22,broadcast:[11,24,25],bsd:23,bstar:[5,25],build:[15,22],built:[22,24],bulk:25,bwinkel:22,cach:[6,25],calcul:[2,6,11,21,24],call:[6,15,25],can:[2,3,5,6,11,13,14,15,18,19,20,21,22,24,25],cartesian:[3,6,11,24,25],catalog:5,catalog_numb:5,caus:25,celestrak:[2,5,9,24,25],center:[0,11],certain:[6,25],certainli:22,chang:[1,6,11,14,22,24,25],check:[15,16],checksum:16,chksum:16,choic:[4,22],choos:25,chosen:11,clang_osx:22,clangxx_osx:22,classmethod:2,claus:23,clone:22,cls:2,code:[11,21,22,23,25],coerce_to_nan:[6,11],com:[5,22,24,25],combin:25,comma:15,command:22,commun:21,compar:25,comparison:25,compat:25,compil:22,complic:25,comput:[5,16,21,22,23,25],computation:2,conda:22,conjuct:[1,25],consid:22,consist:[17,18,24],construct:[0,1,2,3,4,6,11,25],constructor:[3,4,25],contain:[1,5,9,18,19,24,25],content:9,contrast:[21,25],control:[14,15],conveni:[2,15,25],convers:25,convert:[2,6,11,17,24,25],coordgeodet:0,coordin:[1,3,24,25],coordtopocentr:1,core:[11,15,21,25],correct:16,correspond:[2,5,25],could:22,cours:25,cpp:22,cppflag:22,cpu:[11,15,25],creat:[2,22,24,25],cse:[9,18,19,25],ctrak_scienc:[5,24,25],current:[2,6,22],cxx11:22,cxx:22,cysgp4:[0,1,2,3,4,5,6,7,8,9,10,11,12,13,14,15,16,17,18,19,23],cython:[21,23,25],dai:[2,5,13,17,25],daili:25,daniel:[11,21,23,25],data:15,date:[2,3,5,6,11,17,22,24,25],datetim:[1,2,3,4,6,17,25],ddt6:[5,25],decid:11,decim:17,def:25,defin:[1,5,6,11,17,24,25],definit:[11,13,25],deg:[0,1,4,5,6,11,17],degre:[2,25],demonstr:[6,11,25],dep:22,depend:22,deriv:[2,5],describ:[5,25],descript:[11,17],design:[4,5,25],desir:[2,6,11,22,25],desper:22,detail:11,determin:[11,24],develop:22,deviat:[6,11],diagnos:15,dict:11,dict_kei:24,dictionari:[11,24,25],differ:[6,11,22,24,25],digit:[2,5,16,17,25],dimens:[11,24],dimensionless:17,dimless:5,directli:25,directori:[15,22],disabl:15,discuss:25,dist:[1,11,24,25],dist_km:[1,25],dist_rat:[1,11,24],dist_rate_km:[1,25],dist_rate_km_per_:1,distanc:[1,11,25],distribut:22,divid:5,do_eci_po:[11,12,24,25],do_eci_vel:[11,12,24,25],do_geo:[11,12,24,25],do_obs_po:11,do_sat_azel:11,do_topo:[11,12,24,25],docs_path:15,doctest:15,document:[0,1,2,3,4,5,6,15,22],doe:[22,25],done:[2,25],doubl:[0,1,2,4,6,11,13,17],download:[9,24,25],drag:[5,25],dt2:[5,25],due:11,dwarner:11,each:[11,15,17,18,24,25],earth:[0,5,11,13,25],easi:22,easier:11,easiest:22,eccentr:[5,17,25],ecef:0,eci:[3,4,6,11,24,25],eci_i:7,eci_po:[6,11,24,25],eci_vel:[11,24,25],eci_x:7,eci_z:7,edit:[9,11,12,15],either:[6,11,22],el_deg:[1,25],element:[5,17,21,23,24,25],elev:[1,2,11,25],ellipsoid:25,encapsul:25,entri:[9,18,19,25],environ:[11,14,22],epoch:[2,5,6,11,17,25],error:[6,11,22],errorbar:5,especi:[5,22,25],etc:25,even:22,everyth:11,exact:25,exactli:25,exampl:[0,1,2,3,4,5,6,9,11,13,16,17,18,19,24,25],excel:21,exist:25,exo:[9,18,19,25],extern:11,extra:15,extract:22,fail:15,failur:[15,22],fals:[11,24,25],famou:25,fast:[24,25],faster:[11,25],feed:25,few:25,field:[13,25],file:[9,13,15,18,19,22,24,25],first:[2,5,11,17,24,25],fit:[13,15],fix:[0,4,25],flag:22,follow:[2,6,11,17,22,24,25],forg:22,form:[3,25],format:[2,17,25],former:24,formula:13,fraction:[2,17,25],frame:[0,2,11,24,25],free:25,from:[0,1,2,3,4,5,6,9,11,15,17,21,23,24,25],from_mjd:[2,3,6,24,25],from_tick:[2,25],from_tle_epoch:2,fulli:[22,24],function_nam:20,further:11,furthermor:[6,25],gain:25,gbyte:22,gener:17,geo:[0,3,6,11,24,25],geo_loc:3,geo_po:[6,24,25],geodet:[6,11,24,25],geograph:[0,1,2,3,4,6,11,24,25],geoid:25,get:[5,22,24,25],get_datetime_tupl:2,get_example_tl:[11,18,19,24,25],git:22,github:[9,11,12,15,22],given:[2,6,11,17,25],global:25,gmst:[2,25],goe:25,good:17,gpl:23,granular:[6,25],gravit:[13,25],great:22,greenwhich:2,hand:25,happen:[6,11,22],hardcod:25,has:[4,11,12,17,22,25],have:[2,5,22,25],heavi:2,help:22,helper:25,here:[22,25],higher:25,hold:[0,1,3,4,25],home:22,horizont:[2,25],hour:[2,17,25],how:[6,11,15,22,25],howev:[1,4,22,24,25],hst:[5,6,9,18,19,24,25],hst_tle:[5,6,24,25],http:[5,13,15,22,24,25],idx:[5,25],ignor:2,implement:[11,25],inclin:[5,17,25],inclination_deg:17,includ:[11,13,18,19,22,25],incompat:22,index:22,influenc:25,info:15,inform:[1,5,25],init:2,input:[11,25],instal:21,instanc:[2,6,11],instead:[6,11,22],instruct:22,int64_t:2,int_design:5,interest:[6,11,25],interfac:[4,11,12,24],intern:[2,3,4,5,6,21,25],interplai:25,iso:11,issu:22,its:25,itself:[11,23],januari:[2,25],julian:[2,6,11,25],jupyt:[21,24],just:25,kei:[11,24,25],keplarian:[17,25],keyword:15,kmu:13,known:[21,25],kwarg:15,kxkmper:13,larg:[5,11,22,24],larger:6,last:[5,6,11,24,25],lat:[0,8,11,24],lat_deg:[0,3,4,6,24,25],later:[6,22,24,25],latest:25,latitud:[0,3,4,25],latter:[11,22],launch:5,lazi:[6,25],lazili:6,ldflag:22,lead:22,least:[5,25],leav:15,len:[5,25],length:[11,25],less:[6,25],let:25,level:25,lgomp:22,lib:22,libc:22,librari:[6,11,21,23],like:[6,9,13,17,18,19,22,24,25],line:[5,9,16,17,18,19,21,22,23,24,25],line_on:5,line_two:5,linear:2,link:22,linspac:[11,24,25],linux:22,list:[5,11,15,18,19,24,25],lmst:[2,25],loc:[3,4,6,24,25],local:[2,22],locat:[0,1,3,4,6,11,15,24,25],lon:[0,8,11,24,25],lon_deg:[0,3,4,6,24,25],longitud:[0,2,3,4,25],look:[6,25],loop:[12,25],lot:[21,25],low:[5,25],machin:[15,22],mai:[11,15,22],main:15,make:[11,21,22,25],mandatori:22,mani:[5,11,15,24,25],manner:[11,24],manual:[2,21],mark:15,mass:13,maximum:14,mean:[2,5,11,13,17,22,25],mean_anomali:[5,17],mean_anomaly_deg:17,mean_mot:[5,13,17],mean_motion_dt2:5,mean_motion_dt6:5,mean_motion_per_dai:17,meant:12,mention:[2,25],mere:25,mess:22,messag:22,method:[2,3,5,6,11,15,25],micro:[2,25],microsecond:2,min:25,minim:24,minut:[2,6,24,25],mjd:[2,6,7,8,10,11,12,17,24,25],mjd_cache_resolut:[6,25],mjd_epoch:17,mjd_resolut:6,model:[11,25],modifi:[2,6,11,25],moment:24,month:2,more:[6,22,25],mortem:15,most:[11,25],motion:[5,11,13,17,25],move:11,mu_km3_s2:13,much:22,multi:[21,25],multipl:15,must:[2,11,15,22],mysat:17,nadir:11,name:[5,15,17,18,19,25],nan:[6,11],nasa:25,nbsp:[9,11,12,15],ndarrai:11,necessari:[5,22],need:[2,6,22,24,25],newaxi:[11,24,25],newli:[6,25],next:[2,5,17,25],nhst:[9,25],node:[5,17,25],nomin:13,non:12,none:[2,3,6,11,12,15],norad:[5,24,25],normal:15,note:[1,2,3,4,5,11,13,14,17,22,25],notebook:[21,24],noth:15,nov:9,now:[6,25],nthread:14,num_cor:25,numba:[21,25],number:[2,5,11,14,15,17,24,25],numpi:[11,22,24,25],object:[0,1,2,3,4,5,6,11,19,24,25],obs:[4,6,24,25],obs_po:11,observ:[1,2,4,6,10,11,12,24,25],observer_longitud:[2,25],obslon_deg:2,obtain:[5,22,25],odd:4,off:15,often:[2,5,6,11,22,25],omp_num_thread:[11,14],on_error:[6,11,12],onboard:25,onc:[5,11,25],one:[2,5,6,11,20,24,25],ones:15,onli:[1,2,3,5,6,11,12,15,17,22,25],open:[15,23],open_fil:15,openmp:[11,21,22,25],opt:22,option:[6,11,13,15,22],orbit:[5,17,24,25],org:[13,15],orient:24,orthogon:11,other:[5,22,25],otherwis:22,out:[22,25],outdat:[5,25],outer:25,output:[11,15,25],over:[24,25],overwrit:22,owing:25,own:22,pack:11,packag:[15,21,22,23],pair:24,parallel:[11,12,15,24,25],paramet:[0,1,2,3,4,5,6,11,13,14,15,16,17,18,19,25],pars:[5,13,18,19,25],parti:22,particular:[3,25],partli:23,pass:[4,15],pastebin:15,path:15,pdb:15,pep8:15,per:[5,13,18,19,25],perform:[6,11,24,25],perige:[5,17,25],permissionerror:22,perpendicular:11,pertub:25,perturb:25,phi:11,physic:25,piec:5,plane:11,plate:11,platform:[21,25],pleas:22,plu:25,plugin:15,point:[2,11,22,25],posit:[1,2,6,11,21,23,24,25],possibl:[0,1,2,3,4,22,24,25],post:15,power:[21,23,25],practic:[5,25],prefer:22,prepare_arrai:25,previou:6,print:[2,5,11,22,24,25],probabl:[2,11,24,25],problem:22,process:[6,11,21,25],produc:25,product:25,propagate_mani:[12,24,25],propagate_many_sgp4:25,propagate_many_slow:25,properti:[0,1,2,3,4,24,25],provid:[15,20,21,22,25],psutil:15,publish:[23,25],purpos:[9,25],pyarg:22,pycoordgeodet:[3,4,6,24],pycoordtopocentr:[6,11,24],pydatetim:[3,5,6,17,24],pydt:[2,3,6,17,24,25],pyeci:[4,6,11],pyobserv:[1,6,11,24],pypi:22,pytest:[15,22],python:[2,6,11,12,20,21,22,25],pytl:[6,11,19,24],queri:[2,5,6,11,24,25],quick:21,quickli:[5,25],r_earth_km:13,raan:[5,17],raan_deg:17,radiu:13,rais:[6,11,12],rang:[1,5,25],rate:[1,25],reach:25,read:[3,22,25],readonli:3,realli:[17,25],reason:25,recommend:22,refer:1,rel:[1,15,25],relat:[22,25],relev:11,remot:15,remote_data:15,repeat:[15,25],replac:22,report:22,repositori:22,request:[5,6,11,24,25],requir:15,resolut:[6,25],respect:11,result:[6,11,24,25],rev_numb:5,revolut:[5,13],rhode:[21,25],right:[5,17,25],risk:22,rotat:25,routin:[5,25],rpath:22,rst:15,rule:[11,24,25],run:[15,22,25],run_tim:25,runtimeerror:[6,11],same:[11,12,15,25],sat:[6,24,25],sat_azel:11,sat_fram:[10,11],sat_nam:17,sat_nr:17,sat_pos_i:10,sat_pos_x:10,sat_pos_z:10,sat_vel_i:10,sat_vel_x:10,sat_vel_z:10,satellit:[1,2,5,11,13,17,21,23,24],satellite_mean_mot:17,scalar:11,scale:2,scienc:[5,9,24,25],second:[2,5,25],section:25,see:[0,1,2,3,4,5,6,11,13,17,22],seen:11,self:[2,3,5,6],sep:[5,25],separ:15,set:[2,3,4,5,6,11,14,15,22,25],set_num_thread:[11,25],setuptool:22,sever:[2,25],sgp4:[0,1,2,3,4,5,11,21,24],sgp4lib:[21,23],sgp:[6,11],shape:[11,24,25],should:[5,15,22,25],sider:2,signific:25,similar:[21,25],simpl:[17,20],simpler:22,simpli:22,simplifi:25,sinc:[2,22,25],singl:[11,15],six:[5,25],skip:[15,24,25],skip_doc:15,slow:[12,25],slower:11,solar:25,sole:25,some:[22,25],sometim:22,soon:22,sort:[11,24,25],sourc:[5,9,11,12,15,23,25],specif:[15,25],specifi:[15,25],speed:[21,25],split:[5,18,25],sporad:15,stai:22,standard:22,start:25,stdlib:22,step:[11,24,25],still:25,store:[2,3,5,17,25],str:[5,6,9,11,15,16,17,18,19],straightforward:[0,1,3,4,25],strang:[2,17,25],strict:22,string:[5,9,13,15,16,17,18,19,24,25],strongli:[6,11],struct:[0,1],structur:25,succe:22,sudo:22,suggest:[5,25],suit:[15,22],suitabl:22,summari:[0,1,2,3,4,5,6],support:22,suppress:[6,11],surfac:[13,25],system:[4,22,25],tar:22,task:2,templat:[21,23],term:5,test:[9,12,25],test_path:15,text:[5,9,13,18,19,24,25],than:[6,25],thei:[13,25],them:[11,17,24,25],theta:11,thi:[1,2,4,6,9,11,12,13,14,15,17,18,19,21,22,24,25],thin:[0,1,2,3,4,5,25],thing:[22,25],think:25,third:[22,25],thread:14,three:[2,5,17,18,19,24,25],thrown:[6,11],thu:[1,25],tick:[2,25],ticket:22,time:[2,3,4,5,6,11,15,17,21,24,25],timeit:25,timer:25,timescal:2,timestamp:6,timezon:[2,25],tle:[2,5,6,9,11,12,13,16,17,18,19,21,23,24,25],tle_epoch:2,tle_lin:[16,17],tle_list:[5,18,19,24,25],tle_str:5,tle_text:[9,11,18,19,25],tle_tupl:[17,18,19],tle_tuples_from_text:[9,24,25],tles_from_text:[11,25],tool:[22,25],topo:[1,6,11,24,25],topo_po:[6,24,25],topocentr:[1,6,11,24,25],tour:21,toward:[11,22],tox:22,track:11,tracker:22,tricki:22,trigger:[6,25],troubl:22,tupl:[5,17,18,24,25],turn:[15,25],tutori:[21,24],two:[2,5,11,17,21,22,23,24,25],txt:[5,9,24,25],type:2,typic:[6,25],under:23,underli:[6,11,25],unfortun:25,unicod:[6,10,16,17,18,19],unless:22,updat:[3,22,25],upgrad:22,upload:15,url:[5,24,25],use:[2,5,6,11,14,15,17,21,22,24,25],used:[2,5,6,11,17,25],useful:[1,2,15,24,25],user:[11,22],uses:[21,25],using:[0,1,2,3,4,22,25],usr:22,usual:[4,6,11,25],utc:[2,3,5,17,25],utcnow:[2,6],util:[11,15,22,25],v_x:11,v_y:11,v_z:11,valid:17,vallado:11,valu:[6,11],vari:25,variabl:[2,11,14,22],variou:[11,25],vector:[6,11],vel:[3,6,24,25],velic:11,veloc:[3,6,11,24,25],verbos:15,veri:[2,17,25],version:[12,22,25],via:[0,1,2,3,4,6,11,15,20,21,22,24,25],virtualenv:22,visual:22,wai:22,want:[16,22,24],warner:[11,21,23,25],websit:24,well:[21,25],wgs72:[13,25],wgs84:25,what:17,wheel:22,when:15,whether:[11,15],which:[1,2,5,6,9,11,21,22,23,24,25],wide:22,wiki:13,wikipedia:[2,5,13,17],work:[6,11,21,22,24,25],would:[2,6,17,25],wrap:25,wrapper:[0,1,2,3,4,5,21,23],write:22,xdist:15,xyz:11,year:[2,5,17,25],you:[16,22,25],your:[22,25],zero:[2,4,11,25],zhangzheng:[9,18,19,25],zip:[5,25],zxy:[10,11]},titles:["PyCoordGeodetic","PyCoordTopocentric","PyDateTime","PyEci","PyObserver","PyTle","Satellite","eci_to_geo","geo_to_eci","get_example_tles","lookangles","propagate_many","propagate_many_slow","satellite_mean_motion","set_num_threads","test","tle_checksum","tle_linestrings_from_orbital_parameters","tle_tuples_from_text","tles_from_text","Importing cysgp4","cysgp4 Documentation","Installation","Licenses","Cysgp4 quick tour","Cysgp4 user manual"],titleterms:{"class":25,"function":25,"import":20,Using:[22,25],acknowledg:21,also:25,anaconda:22,api:25,batch:25,benchmark:25,calcul:25,clang:22,cysgp4:[20,21,22,24,25],document:21,eci_to_geo:7,from:22,gcc:22,geo_to_eci:8,get:21,get_example_tl:9,instal:22,interfac:25,introduct:25,librari:25,licens:[21,23],llvm:22,lookangl:10,maco:22,manual:25,option:25,packag:25,pip:22,propagate_mani:11,propagate_many_slow:12,pycoordgeodet:[0,25],pycoordtopocentr:[1,25],pydatetim:[2,25],pyeci:[3,25],pyobserv:[4,25],pytl:[5,25],quick:24,refer:25,requir:22,satellit:[6,25],satellite_mean_mot:13,see:25,set_num_thread:14,sgp4:25,sourc:22,start:21,test:[15,22],tle_checksum:16,tle_linestrings_from_orbital_paramet:17,tle_tuples_from_text:18,tles_from_text:19,tour:24,user:[21,25],window:22,wrapper:25}})